{"type": "FeatureCollection", "features": [ {"type": "Feature", "properties": {"norad_id": 35284, "name": "COSMOS 2251 DEB", "group": "cosmos-2251-debris", "lat": -71.44742624964273, "lon": -142.3506472867679, "alt_km": 767.7994232897818, "timestamp": "2025-12-06T09:34:17.310120+00:00", "meta": {"OBJECT_NAME": "COSMOS 2251 DEB", "OBJECT_ID": "1993-036AJN", "EPOCH": "2025-12-04T04:49:40.154016", "MEAN_MOTION": 14.38302893, "ECCENTRICITY": 0.0016445, "INCLINATION": 74.0489, "RA_OF_ASC_NODE": 280.1443, "ARG_OF_PERICENTER": 358.2781, "MEAN_ANOMALY": 66.8763, "EPHEMERIS_TYPE": 0, "CLASSIFICATION_TYPE": "U", "NORAD_CAT_ID": 35284, "ELEMENT_SET_NO": 999, "REV_AT_EPOCH": 65403, "BSTAR": 0.00035677, "MEAN_MOTION_DOT": 1.061e-05, "MEAN_MOTION_DDOT": 0}, "tle": {"line1": "1 35284U 93036AJN 25338.20115919  .00001061  00000+0  35677-3 0  9990", "line2": "2 35284  74.0489 280.1443 0016445 358.2781  66.8763 14.38302893654037"}}, "geometry": {"type": "Point", "coordinates": [-142.3506472867679, -71.44742624964273]}}, {"type": "Feature", "properties": {"norad_id": 35287, "name": "COSMOS 2251 DEB", "group": "cosmos-2251-debris", "lat": 38.23318865148877, "lon": 94.74868950292522, "alt_km": 772.246806896087, "timestamp": "2025-12-06T09:34:17.310131+00:00", "meta": {"OBJECT_NAME": "COSMOS 2251 DEB", "OBJECT_ID": "1993-036AJR", "EPOCH": "2025-12-05T15:21:41.888160", "MEAN_MOTION": 14.36366268, "ECCENTRICITY": 0.00172627, "INCLINATION": 74.03, "RA_OF_ASC_NODE": 289.1814, "ARG_OF_PERICENTER": 27.8531, "MEAN_ANOMALY": 149.9879, "EPHEMERIS_TYPE": 0, "CLASSIFICATION_TYPE": "U", "NORAD_CAT_ID": 35287, "ELEMENT_SET_NO": 999, "REV_AT_EPOCH": 86790, "BSTAR": 0.00027832351, "MEAN_MOTION_DOT": 7.9e-06, "MEAN_MOTION_DDOT": 0}, "tle": {"line1": "1 35287U 93036AJR 25339.64006815  .00000790  00000+0  27832-3 0  9998", "line2": "2 35287  74.0300 289.1814 0017262  27.8531 149.9879 14.36366268867900"}}, "geometry": {"type": "Point", "coordinates": [94.74868950292522, 38.23318865148877]}}, {"type": "Feature", "properties": {"norad_id": 35288, "name": "COSMOS 2251 DEB", "group": "cosmos-2251-debris", "lat": -11.224939175947739, "lon": 24.16891549617241, "alt_km": 678.2013607635226, "timestamp": "2025-12-06T09:34:17.310141+00:00", "meta": {"OBJECT_NAME": "COSMOS 2251 DEB", "OBJECT_ID": "1993-036AJS", "EPOCH": "2025-12-05T20:30:59.855616", "MEAN_MOTION": 14.65344236, "ECCENTRICITY": 0.00396154, "INCLINATION": 73.9509, "RA_OF_ASC_NODE": 28.4958, "ARG_OF_PERICENTER": 262.8912, "MEAN_ANOMALY": 96.775, "EPHEMERIS_TYPE": 0, "CLASSIFICATION_TYPE": "U", "NORAD_CAT_ID": 35288, "ELEMENT_SET_NO": 999, "REV_AT_EPOCH": 87777, "BSTAR": 0.0019659658, "MEAN_MOTION_DOT": 0.00010724, "MEAN_MOTION_DDOT": 0}, "tle": {"line1": "1 35288U 93036AJS 25339.85485944  .00010724  00000+0  19660-2 0  9993", "line2": "2 35288  73.9509  28.4958 0039615 262.8912  96.7750 14.65344236877779"}}, "geometry": {"type": "Point", "coordinates": [24.16891549617241, -11.224939175947739]}}, {"type": "Feature", "properties": {"norad_id": 35290, "name": "COSMOS 2251 DEB", "group": "cosmos-2251-debris", "lat": -65.42927857150238, "lon": 33.09955149845484, "alt_km": 635.7424000286301, "timestamp": "2025-12-06T09:34:17.310151+00:00", "meta": {"OBJECT_NAME": "COSMOS 2251 DEB", "OBJECT_ID": "1993-036AJU", "EPOCH": "2025-12-05T22:32:12.468480", "MEAN_MOTION": 14.80062552, "ECCENTRICITY": 0.00031157, "INCLINATION": 74.0062, "RA_OF_ASC_NODE": 72.8591, "ARG_OF_PERICENTER": 204.7419, "MEAN_ANOMALY": 155.3609, "EPHEMERIS_TYPE": 0, "CLASSIFICATION_TYPE": "U", "NORAD_CAT_ID": 35290, "ELEMENT_SET_NO": 999, "REV_AT_EPOCH": 87857, "BSTAR": 0.0032907713, "MEAN_MOTION_DOT": 0.00024997, "MEAN_MOTION_DDOT": 0}, "tle": {"line1": "1 35290U 93036AJU 25339.93903320  .00024997  00000+0  32908-2 0  9995", "line2": "2 35290  74.0062  72.8591 0003115 204.7419 155.3609 14.80062552878576"}}, "geometry": {"type": "Point", "coordinates": [33.09955149845484, -65.42927857150238]}}, {"type": "Feature", "properties": {"norad_id": 35432, "name": "COSMOS 2251 DEB", "group": "cosmos-2251-debris", "lat": -65.4505358431485, "lon": -9.956600389684098, "alt_km": 505.52518750294803, "timestamp": "2025-12-06T09:34:17.310161+00:00", "meta": {"OBJECT_NAME": "COSMOS 2251 DEB", "OBJECT_ID": "1993-036AKA", "EPOCH": "2025-12-05T13:21:29.827872", "MEAN_MOTION": 15.20593874, "ECCENTRICITY": 0.00121086, "INCLINATION": 74.0213, "RA_OF_ASC_NODE": 30.6647, "ARG_OF_PERICENTER": 349.9556, "MEAN_ANOMALY": 10.1398, "EPHEMERIS_TYPE": 0, "CLASSIFICATION_TYPE": "U", "NORAD_CAT_ID": 35432, "ELEMENT_SET_NO": 999, "REV_AT_EPOCH": 87394, "BSTAR": 0.0094993617, "MEAN_MOTION_DOT": 0.00214796, "MEAN_MOTION_DDOT": 0}, "tle": {"line1": "1 35432U 93036AKA 25339.55659523  .00214796  00000+0  94994-2 0  9995", "line2": "2 35432  74.0213  30.6647 0012108 349.9556  10.1398 15.20593874873942"}}, "geometry": {"type": "Point", "coordinates": [-9.956600389684098, -65.4505358431485]}}, {"type": "Feature", "properties": {"norad_id": 35433, "name": "COSMOS 2251 DEB", "group": "cosmos-2251-debris", "lat": -61.00290547828256, "lon": -41.036872741500886, "alt_km": 789.739139434826, "timestamp": "2025-12-06T09:34:17.310171+00:00", "meta": {"OBJECT_NAME": "COSMOS 2251 DEB", "OBJECT_ID": "1993-036AKB", "EPOCH": "2025-12-05T19:38:16.327392", "MEAN_MOTION": 14.34730306, "ECCENTRICITY": 0.00254596, "INCLINATION": 74.0335, "RA_OF_ASC_NODE": 351.128, "ARG_OF_PERICENTER": 48.4343, "MEAN_ANOMALY": 128.9694, "EPHEMERIS_TYPE": 0, "CLASSIFICATION_TYPE": "U", "NORAD_CAT_ID": 35433, "ELEMENT_SET_NO": 999, "REV_AT_EPOCH": 86481, "BSTAR": 0.00044039966, "MEAN_MOTION_DOT": 1.226e-05, "MEAN_MOTION_DDOT": 0}, "tle": {"line1": "1 35433U 93036AKB 25339.81824453  .00001226  00000+0  44040-3 0  9991", "line2": "2 35433  74.0335 351.1280 0025459  48.4343 128.9694 14.34730306864810"}}, "geometry": {"type": "Point", "coordinates": [-41.036872741500886, -61.00290547828256]}}, {"type": "Feature", "properties": {"norad_id": 35434, "name": "COSMOS 2251 DEB", "group": "cosmos-2251-debris", "lat": 54.09571690590721, "lon": -111.64918698350948, "alt_km": 832.1930523873416, "timestamp": "2025-12-06T09:34:17.310181+00:00", "meta": {"OBJECT_NAME": "COSMOS 2251 DEB", "OBJECT_ID": "1993-036AKC", "EPOCH": "2025-12-05T09:43:32.436192", "MEAN_MOTION": 14.25652934, "ECCENTRICITY": 0.00875586, "INCLINATION": 74.0412, "RA_OF_ASC_NODE": 226.8624, "ARG_OF_PERICENTER": 299.1367, "MEAN_ANOMALY": 60.1037, "EPHEMERIS_TYPE": 0, "CLASSIFICATION_TYPE": "U", "NORAD_CAT_ID": 35434, "ELEMENT_SET_NO": 999, "REV_AT_EPOCH": 86013, "BSTAR": 0.00120768, "MEAN_MOTION_DOT": 2.955e-05, "MEAN_MOTION_DDOT": 0}, "tle": {"line1": "1 35434U 93036AKC 25339.40523653  .00002955  00000+0  12077-2 0  9999", "line2": "2 35434  74.0412 226.8624 0087558 299.1367  60.1037 14.25652934860135"}}, "geometry": {"type": "Point", "coordinates": [-111.64918698350948, 54.09571690590721]}}, {"type": "Feature", "properties": {"norad_id": 35435, "name": "COSMOS 2251 DEB", "group": "cosmos-2251-debris", "lat": 48.204322356548886, "lon": -82.16609769285179, "alt_km": 629.2950502921685, "timestamp": "2025-12-06T09:34:17.310191+00:00", "meta": {"OBJECT_NAME": "COSMOS 2251 DEB", "OBJECT_ID": "1993-036AKD", "EPOCH": "2025-12-05T02:38:39.255648", "MEAN_MOTION": 14.78072342, "ECCENTRICITY": 0.00091016, "INCLINATION": 74.0102, "RA_OF_ASC_NODE": 119.0761, "ARG_OF_PERICENTER": 211.2048, "MEAN_ANOMALY": 263.7282, "EPHEMERIS_TYPE": 0, "CLASSIFICATION_TYPE": "U", "NORAD_CAT_ID": 35435, "ELEMENT_SET_NO": 999, "REV_AT_EPOCH": 87426, "BSTAR": 0.0046321505, "MEAN_MOTION_DOT": 0.00033645, "MEAN_MOTION_DDOT": 0}, "tle": {"line1": "1 35435U 93036AKD 25339.11017657  .00033645  00000+0  46322-2 0  9990", "line2": "2 35435  74.0102 119.0761 0009101 211.2048 263.7282 14.78072342874265"}}, "geometry": {"type": "Point", "coordinates": [-82.16609769285179, 48.204322356548886]}}, {"type": "Feature", "properties": {"norad_id": 35439, "name": "COSMOS 2251 DEB", "group": "cosmos-2251-debris", "lat": -24.960163870271547, "lon": -26.729280460678915, "alt_km": 981.6773197486791, "timestamp": "2025-12-06T09:34:17.310201+00:00", "meta": {"OBJECT_NAME": "COSMOS 2251 DEB", "OBJECT_ID": "1993-036AKH", "EPOCH": "2025-12-03T18:34:55.041888", "MEAN_MOTION": 13.92746619, "ECCENTRICITY": 0.02415919, "INCLINATION": 74.0184, "RA_OF_ASC_NODE": 150.1, "ARG_OF_PERICENTER": 321.3614, "MEAN_ANOMALY": 52.9167, "EPHEMERIS_TYPE": 0, "CLASSIFICATION_TYPE": "U", "NORAD_CAT_ID": 35439, "ELEMENT_SET_NO": 999, "REV_AT_EPOCH": 83836, "BSTAR": 0.0019584258, "MEAN_MOTION_DOT": 3.195e-05, "MEAN_MOTION_DDOT": 0}, "tle": {"line1": "1 35439U 93036AKH 25337.77424817  .00003195  00000+0  19584-2 0  9991", "line2": "2 35439  74.0184 150.1000 0241591 321.3614  52.9167 13.92746619838365"}}, "geometry": {"type": "Point", "coordinates": [-26.729280460678915, -24.960163870271547]}}, {"type": "Feature", "properties": {"norad_id": 35440, "name": "COSMOS 2251 DEB", "group": "cosmos-2251-debris", "lat": -13.564444985849189, "lon": -144.0514321995737, "alt_km": 622.5912618410848, "timestamp": "2025-12-06T09:34:17.310211+00:00", "meta": {"OBJECT_NAME": "COSMOS 2251 DEB", "OBJECT_ID": "1993-036AKJ", "EPOCH": "2025-12-04T00:25:11.600832", "MEAN_MOTION": 14.68734875, "ECCENTRICITY": 0.0068957, "INCLINATION": 74.0159, "RA_OF_ASC_NODE": 224.5259, "ARG_OF_PERICENTER": 7.4237, "MEAN_ANOMALY": 352.7936, "EPHEMERIS_TYPE": 0, "CLASSIFICATION_TYPE": "U", "NORAD_CAT_ID": 35440, "ELEMENT_SET_NO": 999, "REV_AT_EPOCH": 68637, "BSTAR": 0.0010432053, "MEAN_MOTION_DOT": 6.276e-05, "MEAN_MOTION_DDOT": 0}, "tle": {"line1": "1 35440U 93036AKJ 25338.01749538  .00006276  00000+0  10432-2 0  9997", "line2": "2 35440  74.0159 224.5259 0068957   7.4237 352.7936 14.68734875686379"}}, "geometry": {"type": "Point", "coordinates": [-144.0514321995737, -13.564444985849189]}}]}